{
"type": "FeatureCollection",
"name": "AOI_El Salvador_20250223_165546_32_4001",
"crs": { "type": "name", "properties": { "name": "urn:ogc:def:crs:OGC:1.3:CRS84" } },
"features": [
{ "type": "Feature", "properties": { "id": "20250223_165546_32_4001", "title": "TanagerScene 20250223_165546_32_4001 Core Imagery", "datetime": "2025/02/23 16:55:46.322", "start_date": null, "end_dateti": null, "collection": "coastal-water-bodies", "collecti_1": "Coastal and Water Bodies", "catalog_id": "tanager-core-imagery", "catalog_ti": "Planet Tanager Sample Products", "stac_href": "https://www.planet.com/data/stac/tanager-core-imagery/coastal-water-bodies/20250223_165546_32_4001/20250223_165546_32_4001.json", "asset_coun": 9, "asset_keys": "basic_beta_udm,basic_radiance_hdf5,basic_sr_hdf5,geolocation_array,ortho_beta_udm,ortho_radiance_hdf5,ortho_sr_hdf5,ortho_visual,thumbnail" }, "geometry": { "type": "MultiPolygon", "coordinates": [ [ [ [ -88.535589427499957, 13.316052417927148 ], [ -88.347462436943687, 13.281823937389948 ], [ -88.375651643002527, 13.139414553891845 ], [ -88.564258778634823, 13.172459688143263 ], [ -88.535589427499957, 13.316052417927148 ] ] ] ] } }
]
}
