{
"type": "FeatureCollection",
"name": "AOI_Sangatta_20250302_030003_92_4001",
"crs": { "type": "name", "properties": { "name": "urn:ogc:def:crs:OGC:1.3:CRS84" } },
"features": [
{ "type": "Feature", "properties": { "id": "20250302_030003_92_4001", "title": "TanagerScene 20250302_030003_92_4001 Core Imagery", "datetime": "2025/03/02 03:00:03.926", "start_date": null, "end_dateti": null, "collection": "coastal-water-bodies", "collecti_1": "Coastal and Water Bodies", "catalog_id": "tanager-core-imagery", "catalog_ti": "Planet Tanager Sample Products", "stac_href": "https://www.planet.com/data/stac/tanager-core-imagery/coastal-water-bodies/20250302_030003_92_4001/20250302_030003_92_4001.json", "asset_coun": 9, "asset_keys": "basic_beta_udm,basic_radiance_hdf5,basic_sr_hdf5,geolocation_array,ortho_beta_udm,ortho_radiance_hdf5,ortho_sr_hdf5,ortho_visual,thumbnail" }, "geometry": { "type": "MultiPolygon", "coordinates": [ [ [ [ 117.716651123031838, 0.624917643426464 ], [ 117.614602022594852, 0.443204406519323 ], [ 117.543137447502602, 0.457938873782266 ], [ 117.638082800633669, 0.640488444493026 ], [ 117.716651123031838, 0.624917643426464 ] ] ] ] } }
]
}
