{
"type": "FeatureCollection",
"name": "AOI_India_20250311_061550_53_4001",
"crs": { "type": "name", "properties": { "name": "urn:ogc:def:crs:OGC:1.3:CRS84" } },
"features": [
{ "type": "Feature", "properties": { "id": "20250311_061550_53_4001", "title": "TanagerScene 20250311_061550_53_4001 Core Imagery", "datetime": "2025/03/11 06:15:50.532", "start_date": null, "end_dateti": null, "collection": "coastal-water-bodies", "collecti_1": "Coastal and Water Bodies", "catalog_id": "tanager-core-imagery", "catalog_ti": "Planet Tanager Sample Products", "stac_href": "https://www.planet.com/data/stac/tanager-core-imagery/coastal-water-bodies/20250311_061550_53_4001/20250311_061550_53_4001.json", "asset_coun": 9, "asset_keys": "basic_beta_udm,basic_radiance_hdf5,basic_sr_hdf5,geolocation_array,ortho_beta_udm,ortho_radiance_hdf5,ortho_sr_hdf5,ortho_visual,thumbnail" }, "geometry": { "type": "MultiPolygon", "coordinates": [ [ [ [ 72.663154363480558, 21.943651222485244 ], [ 72.622445903946954, 21.766386343140518 ], [ 72.526012011827277, 21.784188057633692 ], [ 72.564185371511542, 21.962014968245693 ], [ 72.663154363480558, 21.943651222485244 ] ] ] ] } }
]
}
