{
"type": "FeatureCollection",
"name": "AOI_Belize_20250824_171857_84_4001",
"crs": { "type": "name", "properties": { "name": "urn:ogc:def:crs:OGC:1.3:CRS84" } },
"features": [
{ "type": "Feature", "properties": { "id": "20250824_171857_84_4001", "title": "TanagerScene 20250824_171857_84_4001 Core Imagery", "datetime": "2025/08/24 17:18:57.841", "start_date": null, "end_dateti": null, "collection": "coastal-water-bodies", "collecti_1": "Coastal and Water Bodies", "catalog_id": "tanager-core-imagery", "catalog_ti": "Planet Tanager Sample Products", "stac_href": "https://www.planet.com/data/stac/tanager-core-imagery/coastal-water-bodies/20250824_171857_84_4001/20250824_171857_84_4001.json", "asset_coun": 9, "asset_keys": "basic_beta_udm,basic_radiance_hdf5,basic_sr_hdf5,geolocation_array,ortho_beta_udm,ortho_radiance_hdf5,ortho_sr_hdf5,ortho_visual,thumbnail" }, "geometry": { "type": "MultiPolygon", "coordinates": [ [ [ [ -88.290680376512881, 18.45802959528082 ], [ -88.302678190437703, 18.447285284303373 ], [ -88.3060650178994, 18.44441161251769 ], [ -88.310888681253942, 18.440306367109567 ], [ -88.313967615310034, 18.43630375283665 ], [ -88.314583402121244, 18.429530097913251 ], [ -88.321151794774224, 18.42378275434189 ], [ -88.324333359965522, 18.419985402339378 ], [ -88.329464916725669, 18.416085419201661 ], [ -88.335314891432233, 18.413930165362398 ], [ -88.337367514136304, 18.412082804928744 ], [ -88.340651710462794, 18.409209133143062 ], [ -88.345578004952543, 18.408080190655827 ], [ -88.352043766470331, 18.405514412275753 ], [ -88.359946363880965, 18.40069074892121 ], [ -88.368054223561998, 18.396482872377884 ], [ -88.374109460538975, 18.392274995834562 ], [ -88.378881808325886, 18.38929869291368 ], [ -88.389452815251786, 18.381293464367847 ], [ -88.392326487037479, 18.371543506523562 ], [ -88.390581757739028, 18.362614597760899 ], [ -88.387297561412524, 18.355122524891076 ], [ -88.380318644218718, 18.353685688998237 ], [ -88.374160776106535, 18.354301475809454 ], [ -88.367695014588747, 18.356559360783919 ], [ -88.364102924856653, 18.358817245758384 ], [ -88.35630295858121, 18.361793548679273 ], [ -88.349939828198629, 18.363333015707319 ], [ -88.340703026030354, 18.365488269546582 ], [ -88.333005690890133, 18.367951416791456 ], [ -88.328592552076401, 18.370311932901124 ], [ -88.319047856502522, 18.370004039495516 ], [ -88.313916299742374, 18.36713036770983 ], [ -88.313608406336769, 18.36302512230171 ], [ -88.315661029040825, 18.359638294840011 ], [ -88.323153101910648, 18.355430418296688 ], [ -88.332903059754926, 18.347425189750851 ], [ -88.33813724765028, 18.343319944342731 ], [ -88.340189870354337, 18.338906805529 ], [ -88.340087239219145, 18.335622609202503 ], [ -88.338239878785487, 18.332543675146415 ], [ -88.331466223862094, 18.333672617633646 ], [ -88.320484692395368, 18.337059445095345 ], [ -88.313711037471961, 18.339830485745829 ], [ -88.303664659661763, 18.3430627986065 ], [ -88.31054073713571, 18.310226290436674 ], [ -88.495917405949768, 18.345121234421629 ], [ -88.465622435116927, 18.491052576270565 ], [ -88.290680376512881, 18.45802959528082 ] ] ] ] } }
]
}
