{
"type": "FeatureCollection",
"name": "spectral_sample",
"crs": { "type": "name", "properties": { "name": "urn:ogc:def:crs:OGC:1.3:CRS84" } },
"features": [
{"type":"Feature","properties":{"class":"water","class_id":0},"geometry":{"type":"Point","coordinates":[117.620660964471881,0.471054302151657]}},
{"type":"Feature","properties":{"class":"water","class_id":0},"geometry":{"type":"Point","coordinates":[117.686980904355096,0.535215714223249]}},
{"type":"Feature","properties":{"class":"water","class_id":0},"geometry":{"type":"Point","coordinates":[117.678114253214062,0.479537478045032]}},
{"type":"Feature","properties":{"class":"water","class_id":0},"geometry":{"type":"Point","coordinates":[117.710285240518928,0.608012761045302]}},
{"type":"Feature","properties":{"class":"water","class_id":0},"geometry":{"type":"Point","coordinates":[117.696708979631296,0.615495956759317]}},
{"type":"Feature","properties":{"class":"mangrove","class_id":1},"geometry":{"type":"Point","coordinates":[117.626560021447702,0.510997197780229]}},
{"type":"Feature","properties":{"class":"mangrove","class_id":1},"geometry":{"type":"Point","coordinates":[117.632457416925121,0.531336985404779]}},
{"type":"Feature","properties":{"class":"mangrove","class_id":1},"geometry":{"type":"Point","coordinates":[117.653684375222909,0.564785623603634]}},
{"type":"Feature","properties":{"class":"mangrove","class_id":1},"geometry":{"type":"Point","coordinates":[117.66887393164788,0.602730708491329]}},
{"type":"Feature","properties":{"class":"mangrove","class_id":1},"geometry":{"type":"Point","coordinates":[117.699470236944265,0.624208918095805]}},
{"type":"Feature","properties":{"class":"bareland","class_id":2},"geometry":{"type":"Point","coordinates":[117.587704651251968,0.607083405159378]}},
{"type":"Feature","properties":{"class":"bareland","class_id":2},"geometry":{"type":"Point","coordinates":[117.618502319445412,0.590929906779643]}},
{"type":"Feature","properties":{"class":"bareland","class_id":2},"geometry":{"type":"Point","coordinates":[117.544966018901107,0.55525602914102]}},
{"type":"Feature","properties":{"class":"bareland","class_id":2},"geometry":{"type":"Point","coordinates":[117.574802221301709,0.570396218727785]}},
{"type":"Feature","properties":{"class":"bareland","class_id":2},"geometry":{"type":"Point","coordinates":[117.614315700508726,0.531482703959447]}},
{"type":"Feature","properties":{"class":"urban","class_id":3},"geometry":{"type":"Point","coordinates":[117.535627041489931,0.503622748963682]}},
{"type":"Feature","properties":{"class":"urban","class_id":3},"geometry":{"type":"Point","coordinates":[117.535236620876901,0.53466441593848]}},
{"type":"Feature","properties":{"class":"urban","class_id":3},"geometry":{"type":"Point","coordinates":[117.600942791485934,0.520540448916536]}},
{"type":"Feature","properties":{"class":"urban","class_id":3},"geometry":{"type":"Point","coordinates":[117.544593438619344,0.480943296540034]}},
{"type":"Feature","properties":{"class":"urban","class_id":3},"geometry":{"type":"Point","coordinates":[117.578574932434123,0.509500015380968]}},
{"type":"Feature","properties":{"class":"bareland","class_id":2},"geometry":{"type":"Point","coordinates":[117.580963441706018,0.633665344192775]}},
{"type":"Feature","properties":{"class":"non-mangrove_vegetation","class_id":4},"geometry":{"type":"Point","coordinates":[117.58999218057356,0.526593292415141]}},
{"type":"Feature","properties":{"class":"non-mangrove_vegetation","class_id":4},"geometry":{"type":"Point","coordinates":[117.62983616762385,0.577485273248282]}},
{"type":"Feature","properties":{"class":"non-mangrove_vegetation","class_id":4},"geometry":{"type":"Point","coordinates":[117.558701007221146,0.61238297910087]}},
{"type":"Feature","properties":{"class":"non-mangrove_vegetation","class_id":4},"geometry":{"type":"Point","coordinates":[117.624019014814138,0.636978431482896]}},
{"type":"Feature","properties":{"class":"non-mangrove_vegetation","class_id":4},"geometry":{"type":"Point","coordinates":[117.56003222637095,0.522117896701285]}},
{"type":"Feature","properties":{"class":"non-mangrove_vegetation","class_id":4},"geometry":{"type":"Point","coordinates":[117.5701048332526,0.48472696201741]}},
{"type":"Feature","properties":{"class":"mangrove","class_id":1},"geometry":{"type":"Point","coordinates":[117.60281265307384,0.453574930241719]}}
]
}
